{
  "norad_id": 58241,
  "name": "STARLINK-30843",
  "history": [
    {
      "epoch": "2026-03-28T12:37:13.791648Z",
      "apogee_km": 483.70753308968233,
      "perigee_km": 482.3792085698906,
      "latitude_deg": -1.7335653883598732e-06,
      "longitude_deg": 163.7228917480893,
      "height_km": 482.92415121950603,
      "semi_major_axis_km": 6861.180370829787,
      "eccentricity": 9.68e-05,
      "inclination_deg": 42.9963,
      "raan_deg": 178.9754,
      "arg_perigee_deg": 260.9136,
      "mean_anomaly_deg": 99.1606,
      "mean_motion_rev_day": 15.27581912
    }
  ]
}