{"fetched_at":"2026-03-29T16:36:15Z","count":15609,"tles":[{"name":"STARLINK-30843","line1":"1 58241U 23171M   26087.52585407  .00000750  00000+0  36771-4 0  9992","line2":"2 58241  42.9963 178.9754 0000968 260.9136  99.1606 15.27581912132633","category":"Starlink"}]}